{
    "links": {
        "self": "http://www.neowsapp.com/rest/v1/neo/3761481?api_key=iIulBulltgU6a56xZRHN4H3l9WmuAYTsLGpBGhQ2"
    },
    "id": "3761481",
    "neo_reference_id": "3761481",
    "name": "(2016 UB26)",
    "designation": "2016 UB26",
    "nasa_jpl_url": "http://ssd.jpl.nasa.gov/sbdb.cgi?sstr=3761481",
    "absolute_magnitude_h": 25.0,
    "estimated_diameter": {
        "kilometers": {
            "estimated_diameter_min": 0.02658,
            "estimated_diameter_max": 0.0594346868
        },
        "meters": {
            "estimated_diameter_min": 26.58,
            "estimated_diameter_max": 59.4346868419
        },
        "miles": {
            "estimated_diameter_min": 0.0165160412,
            "estimated_diameter_max": 0.0369309908
        },
        "feet": {
            "estimated_diameter_min": 87.2047272,
            "estimated_diameter_max": 194.9956979785
        }
    },
    "is_potentially_hazardous_asteroid": false,
    "close_approach_data": [
        {
            "close_approach_date": "2016-10-27",
            "close_approach_date_full": "2016-Oct-27 21:59",
            "epoch_date_close_approach": 1477605540000,
            "relative_velocity": {
                "kilometers_per_second": "17.1051314648",
                "kilometers_per_hour": "61578.4732732328",
                "miles_per_hour": "38262.4685735818"
            },
            "miss_distance": {
                "astronomical": "0.0298434032",
                "lunar": "11.6090838448",
                "kilometers": "4464509.552271184",
                "miles": "2774117.5982389792"
            },
            "orbiting_body": "Earth"
        }
    ],
    "orbital_data": {
        "orbit_id": "4",
        "orbit_determination_date": "2017-04-06 08:22:50",
        "first_observation_date": "2016-10-22",
        "last_observation_date": "2016-10-27",
        "data_arc_in_days": 5,
        "observations_used": 33,
        "orbit_uncertainty": "8",
        "minimum_orbit_intersection": ".0298321",
        "jupiter_tisserand_invariant": "3.041",
        "epoch_osculation": "2457685.5",
        "eccentricity": ".7039271751523305",
        "semi_major_axis": "2.535168193903635",
        "inclination": "4.687183935054662",
        "ascending_node_longitude": "13.40664206188588",
        "orbital_period": "1474.377155776446",
        "perihelion_distance": ".7505944086330134",
        "perihelion_argument": "87.66665719533052",
        "aphelion_distance": "4.319741979174256",
        "perihelion_time": "2457730.493739038740",
        "mean_anomaly": "349.0138381549894",
        "mean_motion": ".2441709019904168",
        "equinox": "J2000",
        "orbit_class": {
            "orbit_class_type": "APO",
            "orbit_class_description": "Near-Earth asteroid orbits which cross the Earth’s orbit similar to that of 1862 Apollo",
            "orbit_class_range": "a (semi-major axis) > 1.0 AU; q (perihelion) < 1.017 AU"
        }
    },
    "is_sentry_object": false
}